CCSDS_OMM_VERS = 2.0
CREATION_DATE  = 
ORIGINATOR     = 

OBJECT_NAME    = COSMOS 1933
OBJECT_ID      = 1988-020A
CENTER_NAME    = EARTH
REF_FRAME      = TEME
TIME_SYSTEM    = UTC
MEAN_ELEMENT_THEORY = SGP/SGP4

EPOCH          = 2026-02-13T03:13:45.979680
MEAN_MOTION    = 15.17766590
ECCENTRICITY   = .000281
INCLINATION    = 82.5117
RA_OF_ASC_NODE = 275.2072
ARG_OF_PERICENTER = 300.7591
MEAN_ANOMALY   = 59.3366

EPHEMERIS_TYPE = 0
CLASSIFICATION_TYPE = U
NORAD_CAT_ID   = 18958
ELEMENT_SET_NO = 999
REV_AT_EPOCH   = 4650
BSTAR          = .17664E-3
MEAN_MOTION_DOT = .3596E-4
MEAN_MOTION_DDOT = 0

CCSDS_OMM_VERS = 2.0
CREATION_DATE  = 
ORIGINATOR     = 

OBJECT_NAME    = SL-3 R/B
OBJECT_ID      = 1988-032B
CENTER_NAME    = EARTH
REF_FRAME      = TEME
TIME_SYSTEM    = UTC
MEAN_ELEMENT_THEORY = SGP/SGP4

EPOCH          = 2026-02-13T02:34:45.055488
MEAN_MOTION    = 15.19590395
ECCENTRICITY   = .0024937
INCLINATION    = 97.5149
RA_OF_ASC_NODE = 27.4590
ARG_OF_PERICENTER = 323.4531
MEAN_ANOMALY   = 36.5001

EPHEMERIS_TYPE = 0
CLASSIFICATION_TYPE = U
NORAD_CAT_ID   = 19046
ELEMENT_SET_NO = 999
REV_AT_EPOCH   = 4837
BSTAR          = .29546E-3
MEAN_MOTION_DOT = .627E-4
MEAN_MOTION_DDOT = 0

CCSDS_OMM_VERS = 2.0
CREATION_DATE  = 
ORIGINATOR     = 

OBJECT_NAME    = SL-16 R/B
OBJECT_ID      = 1988-039B
CENTER_NAME    = EARTH
REF_FRAME      = TEME
TIME_SYSTEM    = UTC
MEAN_ELEMENT_THEORY = SGP/SGP4

EPOCH          = 2026-02-13T04:15:29.812032
MEAN_MOTION    = 14.19612194
ECCENTRICITY   = .002124
INCLINATION    = 71.0145
RA_OF_ASC_NODE = 120.3820
ARG_OF_PERICENTER = 11.5924
MEAN_ANOMALY   = 348.5686

EPHEMERIS_TYPE = 0
CLASSIFICATION_TYPE = U
NORAD_CAT_ID   = 19120
ELEMENT_SET_NO = 999
REV_AT_EPOCH   = 95490
BSTAR          = .89963E-4
MEAN_MOTION_DOT = .142E-5
MEAN_MOTION_DDOT = 0

CCSDS_OMM_VERS = 2.0
CREATION_DATE  = 
ORIGINATOR     = 

OBJECT_NAME    = COSMOS 1953
OBJECT_ID      = 1988-050A
CENTER_NAME    = EARTH
REF_FRAME      = TEME
TIME_SYSTEM    = UTC
MEAN_ELEMENT_THEORY = SGP/SGP4

EPOCH          = 2026-02-12T21:01:13.743264
MEAN_MOTION    = 15.28028623
ECCENTRICITY   = .0010874
INCLINATION    = 82.5088
RA_OF_ASC_NODE = 183.1871
ARG_OF_PERICENTER = 206.7993
MEAN_ANOMALY   = 153.2686

EPHEMERIS_TYPE = 0
CLASSIFICATION_TYPE = U
NORAD_CAT_ID   = 19210
ELEMENT_SET_NO = 999
REV_AT_EPOCH   = 3399
BSTAR          = .36632E-3
MEAN_MOTION_DOT = .10063E-3
MEAN_MOTION_DDOT = 0

CCSDS_OMM_VERS = 2.0
CREATION_DATE  = 
ORIGINATOR     = 

OBJECT_NAME    = SL-8 R/B
OBJECT_ID      = 1988-053B
CENTER_NAME    = EARTH
REF_FRAME      = TEME
TIME_SYSTEM    = UTC
MEAN_ELEMENT_THEORY = SGP/SGP4

EPOCH          = 2026-02-12T16:55:49.838880
MEAN_MOTION    = 14.38900534
ECCENTRICITY   = .00205996
INCLINATION    = 74.0485
RA_OF_ASC_NODE = 158.5144
ARG_OF_PERICENTER = 342.3079
MEAN_ANOMALY   = 122.7792

EPHEMERIS_TYPE = 0
CLASSIFICATION_TYPE = U
NORAD_CAT_ID   = 19257
ELEMENT_SET_NO = 999
REV_AT_EPOCH   = 97300
BSTAR          = .85107674E-4
MEAN_MOTION_DOT = .236E-5
MEAN_MOTION_DDOT = 0

CCSDS_OMM_VERS = 2.0
CREATION_DATE  = 
ORIGINATOR     = 

OBJECT_NAME    = COSMOS 1975
OBJECT_ID      = 1988-093A
CENTER_NAME    = EARTH
REF_FRAME      = TEME
TIME_SYSTEM    = UTC
MEAN_ELEMENT_THEORY = SGP/SGP4

EPOCH          = 2026-02-12T18:31:20.947008
MEAN_MOTION    = 15.27634918
ECCENTRICITY   = .00103131
INCLINATION    = 82.5221
RA_OF_ASC_NODE = 142.6834
ARG_OF_PERICENTER = 255.9086
MEAN_ANOMALY   = 104.1008

EPHEMERIS_TYPE = 0
CLASSIFICATION_TYPE = U
NORAD_CAT_ID   = 19573
ELEMENT_SET_NO = 999
REV_AT_EPOCH   = 1560
BSTAR          = .33133835E-3
MEAN_MOTION_DOT = .8995E-4
MEAN_MOTION_DDOT = 0

CCSDS_OMM_VERS = 2.0
CREATION_DATE  = 
ORIGINATOR     = 

OBJECT_NAME    = SL-14 R/B
OBJECT_ID      = 1988-093B
CENTER_NAME    = EARTH
REF_FRAME      = TEME
TIME_SYSTEM    = UTC
MEAN_ELEMENT_THEORY = SGP/SGP4

EPOCH          = 2026-02-13T03:32:54.569184
MEAN_MOTION    = 14.85627812
ECCENTRICITY   = .0022157
INCLINATION    = 82.5278
RA_OF_ASC_NODE = 65.0884
ARG_OF_PERICENTER = 117.4784
MEAN_ANOMALY   = 314.2767

EPHEMERIS_TYPE = 0
CLASSIFICATION_TYPE = U
NORAD_CAT_ID   = 19574
ELEMENT_SET_NO = 999
REV_AT_EPOCH   = 99739
BSTAR          = .52534E-4
MEAN_MOTION_DOT = .481E-5
MEAN_MOTION_DDOT = 0

CCSDS_OMM_VERS = 2.0
CREATION_DATE  = 
ORIGINATOR     = 

OBJECT_NAME    = SL-16 R/B
OBJECT_ID      = 1988-102B
CENTER_NAME    = EARTH
REF_FRAME      = TEME
TIME_SYSTEM    = UTC
MEAN_ELEMENT_THEORY = SGP/SGP4

EPOCH          = 2026-02-12T23:17:55.180320
MEAN_MOTION    = 14.16149775
ECCENTRICITY   = .0012647
INCLINATION    = 70.9983
RA_OF_ASC_NODE = 203.5036
ARG_OF_PERICENTER = 41.8726
MEAN_ANOMALY   = 318.3362

EPHEMERIS_TYPE = 0
CLASSIFICATION_TYPE = U
NORAD_CAT_ID   = 19650
ELEMENT_SET_NO = 999
REV_AT_EPOCH   = 92339
BSTAR          = .16875E-3
MEAN_MOTION_DOT = .286E-5
MEAN_MOTION_DDOT = 0

CCSDS_OMM_VERS = 2.0
CREATION_DATE  = 
ORIGINATOR     = 

OBJECT_NAME    = INTERCOSMOS 24
OBJECT_ID      = 1989-080A
CENTER_NAME    = EARTH
REF_FRAME      = TEME
TIME_SYSTEM    = UTC
MEAN_ELEMENT_THEORY = SGP/SGP4

EPOCH          = 2026-02-13T04:19:05.794752
MEAN_MOTION    = 12.59522942
ECCENTRICITY   = .1187755
INCLINATION    = 82.6060
RA_OF_ASC_NODE = 120.3588
ARG_OF_PERICENTER = 349.7460
MEAN_ANOMALY   = 8.1197

EPHEMERIS_TYPE = 0
CLASSIFICATION_TYPE = U
NORAD_CAT_ID   = 20261
ELEMENT_SET_NO = 999
REV_AT_EPOCH   = 66371
BSTAR          = .14522E-3
MEAN_MOTION_DOT = .502E-5
MEAN_MOTION_DDOT = 0

CCSDS_OMM_VERS = 2.0
CREATION_DATE  = 
ORIGINATOR     = 

OBJECT_NAME    = SL-14 R/B
OBJECT_ID      = 1989-080C
CENTER_NAME    = EARTH
REF_FRAME      = TEME
TIME_SYSTEM    = UTC
MEAN_ELEMENT_THEORY = SGP/SGP4

EPOCH          = 2026-02-12T21:50:35.252736
MEAN_MOTION    = 12.50462187
ECCENTRICITY   = .1229536
INCLINATION    = 82.5950
RA_OF_ASC_NODE = 189.0921
ARG_OF_PERICENTER = 241.4070
MEAN_ANOMALY   = 105.7988

EPHEMERIS_TYPE = 0
CLASSIFICATION_TYPE = U
NORAD_CAT_ID   = 20262
ELEMENT_SET_NO = 999
REV_AT_EPOCH   = 65705
BSTAR          = .14425E-3
MEAN_MOTION_DOT = .478E-5
MEAN_MOTION_DDOT = 0

CCSDS_OMM_VERS = 2.0
CREATION_DATE  = 
ORIGINATOR     = 

OBJECT_NAME    = DELTA 1 R/B
OBJECT_ID      = 1989-089B
CENTER_NAME    = EARTH
REF_FRAME      = TEME
TIME_SYSTEM    = UTC
MEAN_ELEMENT_THEORY = SGP/SGP4

EPOCH          = 2026-02-13T03:13:04.826496
MEAN_MOTION    = 14.50642460
ECCENTRICITY   = .0068558
INCLINATION    = 97.0724
RA_OF_ASC_NODE = 255.4753
ARG_OF_PERICENTER = 199.1628
MEAN_ANOMALY   = 160.6990

EPHEMERIS_TYPE = 0
CLASSIFICATION_TYPE = U
NORAD_CAT_ID   = 20323
ELEMENT_SET_NO = 999
REV_AT_EPOCH   = 89217
BSTAR          = .10033E-3
MEAN_MOTION_DOT = .37E-5
MEAN_MOTION_DDOT = 0

CCSDS_OMM_VERS = 2.0
CREATION_DATE  = 
ORIGINATOR     = 

OBJECT_NAME    = ARIANE 40 R/B
OBJECT_ID      = 1990-005H
CENTER_NAME    = EARTH
REF_FRAME      = TEME
TIME_SYSTEM    = UTC
MEAN_ELEMENT_THEORY = SGP/SGP4

EPOCH          = 2026-02-13T03:27:25.915680
MEAN_MOTION    = 14.39853832
ECCENTRICITY   = .0008889
INCLINATION    = 98.3139
RA_OF_ASC_NODE = 105.5303
ARG_OF_PERICENTER = 279.1554
MEAN_ANOMALY   = 80.8629

EPHEMERIS_TYPE = 0
CLASSIFICATION_TYPE = U
NORAD_CAT_ID   = 20443
ELEMENT_SET_NO = 999
REV_AT_EPOCH   = 88927
BSTAR          = .10147E-3
MEAN_MOTION_DOT = .276E-5
MEAN_MOTION_DDOT = 0

